NORAD_CAT_ID,OBJECT_NAME,OBJECT_TYPE,EPOCH,MEAN_MOTION,ECCENTRICITY,INCLINATION,RA_OF_ASC_NODE,ARG_OF_PERICENTER,MEAN_ANOMALY,BSTAR,MEAN_MOTION_DOT,MEAN_MOTION_DDOT,TLE_LINE0,TLE_LINE1,TLE_LINE2,SEMIMAJOR_AXIS,PERIOD,APOGEE,PERIGEE,DECAYED
52619.0,STARLINK-3741,PAYLOAD,2023-02-05 22:31:57,15.08844664,0.0001059,53.2124,291.803,88.4117,271.6997,0.00021605,3.153e-05,0.0,0 STARLINK-3741,1 52619U 22052X   23036.93885957  .00003153  00000-0  21605-3 0  9991,2 52619  53.2124 291.8030 0001059  88.4117 271.6997 15.08844664 40730,6917.866,95.437,540.464,538.999,0.0
52619.0,STARLINK-3741,PAYLOAD,2023-02-06 00:07:20,15.0884563,9.99e-05,53.2125,291.5056,86.7506,273.36,0.00028643,4.274e-05,0.0,0 STARLINK-3741,1 52619U 22052X   23037.00509929  .00004274  00000-0  28643-3 0  9996,2 52619  53.2125 291.5056 0000999  86.7506 273.3600 15.08845630 41129,6917.863,95.437,540.419,539.037,0.0
52619.0,STARLINK-3741,PAYLOAD,2023-02-06 20:47:21,15.0884128,8.25e-05,53.2115,287.6403,94.011,266.0976,0.00037538,5.692e-05,0.0,0 STARLINK-3741,1 52619U 22052X   23037.86622206  .00005692  00000-0  37538-3 0  9992,2 52619  53.2115 287.6403 0000825  94.0110 266.0976 15.08841280 40874,6917.876,95.437,540.312,539.171,0.0
52619.0,STARLINK-3741,PAYLOAD,2023-02-07 01:33:30,15.08849853,8.53e-05,53.2112,286.7481,89.351,270.758,0.00054968,8.474e-05,0.0,0 STARLINK-3741,1 52619U 22052X   23038.06494005  .00008474  00000-0  54968-3 0  9996,2 52619  53.2112 286.7481 0000853  89.3510 270.7580 15.08849853 41282,6917.85,95.437,540.305,539.125,0.0
52619.0,STARLINK-3741,PAYLOAD,2023-02-07 22:13:31,15.08840477,0.0001243,53.2126,282.8763,89.9336,270.1799,0.0002148,3.132e-05,0.0,0 STARLINK-3741,1 52619U 22052X   23038.92606258  .00003132  00000-0  21480-3 0  9995,2 52619  53.2126 282.8763 0001243  89.9336 270.1799 15.08840477 41035,6917.879,95.438,540.604,538.884,0.0
52619.0,STARLINK-3741,PAYLOAD,2023-02-08 22:04:19,15.08841748,0.0001121,53.2116,278.4168,100.392,259.7198,0.00030191,4.521e-05,0.0,0 STARLINK-3741,1 52619U 22052X   23039.91966445  .00004521  00000-0  30191-3 0  9994,2 52619  53.2116 278.4168 0001121 100.3920 259.7198 15.08841748 41180,6917.875,95.437,540.516,538.965,0.0
52619.0,STARLINK-3741,PAYLOAD,2023-02-09 10:47:24,15.08839032,0.000155,53.2108,276.044,50.9053,309.2076,0.00029217,4.365e-05,0.0,0 STARLINK-3741,1 52619U 22052X   23040.44958959  .00004365  00000-0  29217-3 0  9998,2 52619  53.2108 276.0440 0001550  50.9053 309.2076 15.08839032 41269,6917.883,95.438,540.821,538.676,0.0
52619.0,STARLINK-3741,PAYLOAD,2023-02-09 13:58:10,15.0883522,0.0001342,53.2124,275.4465,115.9421,244.1709,-2.5752e-05,-6.98e-06,0.0,0 STARLINK-3741,1 52619U 22052X   23040.58206621 -.00000698  00000-0 -25752-4 0  9993,2 52619  53.2124 275.4465 0001342 115.9421 244.1709 15.08835220 41666,6917.895,95.438,540.688,538.832,0.0
52619.0,STARLINK-3741,PAYLOAD,2023-02-09 21:55:06,15.08838426,0.0001067,53.2116,273.9573,98.1957,261.9156,0.0001846,2.651e-05,0.0,0 STARLINK-3741,1 52619U 22052X   23040.91326748  .00002651  00000-0  18460-3 0  9999,2 52619  53.2116 273.9573 0001067  98.1957 261.9156 15.08838426 41338,6917.885,95.438,540.488,539.012,0.0
52619.0,STARLINK-3741,PAYLOAD,2023-02-10 01:05:52,15.08844637,0.0001105,53.212,273.3605,88.0178,272.0941,0.00037528,5.691e-05,0.0,0 STARLINK-3741,1 52619U 22052X   23041.04574671  .00005691  00000-0  37528-3 0  9997,2 52619  53.2120 273.3605 0001105  88.0178 272.0941 15.08844637 41739,6917.866,95.437,540.496,538.967,0.0
52619.0,STARLINK-3741,PAYLOAD,2023-02-10 18:35:07,15.08836957,0.0001181,53.2107,270.0911,84.7075,275.4052,0.00019562,2.827e-05,0.0,0 STARLINK-3741,1 52619U 22052X   23041.77439408  .00002827  00000-0  19562-3 0  9991,2 52619  53.2107 270.0911 0001181  84.7075 275.4052 15.08836957 41849,6917.89,95.438,540.572,538.938,0.0
52619.0,STARLINK-3741,PAYLOAD,2023-02-10 21:45:54,15.08828605,0.0001213,53.2109,269.4963,79.0803,281.0325,-1.4763e-05,-5.23e-06,0.0,0 STARLINK-3741,1 52619U 22052X   23041.90687711 -.00000523  00000-0 -14763-4 0  9990,2 52619  53.2109 269.4963 0001213  79.0803 281.0325 15.08828605 41489,6917.915,95.438,540.619,538.941,0.0
52619.0,STARLINK-3741,PAYLOAD,2023-02-11 12:04:22,15.08836857,0.0001375,53.2112,266.8208,77.2214,282.8932,0.00021211,3.089e-05,0.0,0 STARLINK-3741,1 52619U 22052X   23042.50303869  .00003089  00000-0  21211-3 0  9999,2 52619  53.2112 266.8208 0001375  77.2214 282.8932 15.08836857 41572,6917.89,95.438,540.706,538.804,0.0
52619.0,STARLINK-3741,PAYLOAD,2023-02-11 16:50:31,15.08844285,0.0001385,53.2115,265.9281,88.6807,271.4344,0.0003962,6.024e-05,0.0,0 STARLINK-3741,1 52619U 22052X   23042.70175680  .00006024  00000-0  39620-3 0  9994,2 52619  53.2115 265.9281 0001385  88.6807 271.4344 15.08844285 41981,6917.867,95.437,540.69,538.774,0.0
52619.0,STARLINK-3741,PAYLOAD,2023-02-11 18:25:54,15.08846839,0.0001383,53.2115,265.6305,88.3819,271.7331,0.00043806,6.692e-05,0.0,0 STARLINK-3741,1 52619U 22052X   23042.76799602  .00006692  00000-0  43806-3 0  9998,2 52619  53.2115 265.6305 0001383  88.3819 271.7331 15.08846839 41619,6917.859,95.437,540.681,538.768,0.0
52619.0,STARLINK-3741,PAYLOAD,2023-02-12 13:30:32,15.08837932,0.000143,53.212,262.0629,102.6425,257.4727,6.4752e-05,7.43e-06,0.0,0 STARLINK-3741,1 52619U 22052X   23043.56287723  .00000743  00000-0  64752-4 0  9998,2 52619  53.2120 262.0629 0001430 102.6425 257.4727 15.08837932 41738,6917.887,95.438,540.741,538.762,0.0
52619.0,STARLINK-3741,PAYLOAD,2023-02-12 16:41:19,15.08834882,0.0001391,53.2112,261.4676,86.9926,273.1225,0.00023275,3.418e-05,0.0,0 STARLINK-3741,1 52619U 22052X   23043.69536082  .00003418  00000-0  23275-3 0  9993,2 52619  53.2112 261.4676 0001391  86.9926 273.1225 15.08834882 42134,6917.896,95.438,540.723,538.799,0.0
52619.0,STARLINK-3741,PAYLOAD,2023-02-12 21:27:28,15.08843933,0.0001365,53.211,260.5761,90.6088,269.5061,0.00021001,3.056e-05,0.0,0 STARLINK-3741,1 52619U 22052X   23043.89407606  .00003056  00000-0  21001-3 0  9997,2 52619  53.2110 260.5761 0001365  90.6088 269.5061 15.08843933 42166,6917.868,95.437,540.678,538.789,0.0
52619.0,STARLINK-3741,PAYLOAD,2023-02-13 13:21:19,15.08836011,0.0001388,53.211,257.6015,91.2236,268.8915,-8.2861e-05,-1.606e-05,0.0,0 STARLINK-3741,1 52619U 22052X   23044.55647795 -.00001606  00000-0 -82861-4 0  9999,2 52619  53.2110 257.6015 0001388  91.2236 268.8915 15.08836011 41889,6917.893,95.438,540.718,538.797,0.0
52619.0,STARLINK-3741,PAYLOAD,2023-02-13 16:32:05,15.0883828,0.0001315,53.2111,257.0062,91.7069,268.4074,-1.9734e-05,-6.02e-06,0.0,0 STARLINK-3741,1 52619U 22052X   23044.68895827 -.00000602  00000-0 -19734-4 0  9998,2 52619  53.2111 257.0062 0001315  91.7069 268.4074 15.08838280 42282,6917.886,95.438,540.66,538.841,0.0
52619.0,STARLINK-3741,PAYLOAD,2023-02-14 10:01:20,15.08837337,0.0001327,53.2109,253.7354,88.8251,271.2893,0.00014955,2.093e-05,0.0,0 STARLINK-3741,1 52619U 22052X   23045.41759977  .00002093  00000-0  14955-3 0  9998,2 52619  53.2109 253.7354 0001327  88.8251 271.2893 15.08837337 42013,6917.889,95.438,540.672,538.836,0.0
52619.0,STARLINK-3741,PAYLOAD,2023-02-14 16:22:53,15.08838167,0.0001344,53.2106,252.5448,89.8767,270.2379,0.00014299,1.988e-05,0.0,0 STARLINK-3741,1 52619U 22052X   23045.68255960  .00001988  00000-0  14299-3 0  9993,2 52619  53.2106 252.5448 0001344  89.8767 270.2379 15.08838167 42057,6917.886,95.438,540.681,538.821,0.0
52619.0,STARLINK-3741,PAYLOAD,2023-02-15 09:52:07,15.08844279,0.0001335,53.2104,249.2736,88.1748,271.9396,0.00025318,3.744e-05,0.0,0 STARLINK-3741,1 52619U 22052X   23046.41119649  .00003744  00000-0  25318-3 0  9994,2 52619  53.2104 249.2736 0001335  88.1748 271.9396 15.08844279 42541,6917.867,95.437,540.656,538.809,0.0
52619.0,STARLINK-3741,PAYLOAD,2023-02-15 13:02:53,15.08841084,0.0001328,53.2104,248.6784,85.663,274.4514,0.00018348,2.633e-05,0.0,0 STARLINK-3741,1 52619U 22052X   23046.54367798  .00002633  00000-0  18348-3 0  9999,2 52619  53.2104 248.6784 0001328  85.6630 274.4514 15.08841084 42182,6917.877,95.437,540.661,538.823,0.0
52619.0,STARLINK-3741,PAYLOAD,2023-02-15 20:59:49,15.08846935,0.0001285,53.2105,247.1912,93.3011,266.8128,0.00024586,3.628e-05,0.0,0 STARLINK-3741,1 52619U 22052X   23046.87487461  .00003628  00000-0  24586-3 0  9991,2 52619  53.2105 247.1912 0001285  93.3011 266.8128 15.08846935 42233,6917.859,95.437,540.613,538.835,0.0
52619.0,STARLINK-3741,PAYLOAD,2023-02-16 06:32:08,15.08841322,0.0001365,53.2101,245.4067,90.1147,270.0002,8.2082e-05,1.019e-05,0.0,0 STARLINK-3741,1 52619U 22052X   23047.27231639  .00001019  00000-0  82082-4 0  9998,2 52619  53.2101 245.4067 0001365  90.1147 270.0002 15.08841322 42676,6917.876,95.437,540.686,538.797,0.0
52619.0,STARLINK-3741,PAYLOAD,2023-02-16 12:53:40,15.08841913,0.0001276,53.2106,244.2178,87.8002,272.3136,0.00011757,1.584e-05,0.0,0 STARLINK-3741,1 52619U 22052X   23047.53727611  .00001584  00000-0  11757-3 0  9994,2 52619  53.2106 244.2178 0001276  87.8002 272.3136 15.08841913 42337,6917.875,95.437,540.622,538.857,0.0
52619.0,STARLINK-3741,PAYLOAD,2023-02-16 20:50:35,15.08848951,0.0001028,53.2127,242.7322,90.183,269.928,0.00020475,2.973e-05,0.0,0 STARLINK-3741,1 52619U 22052X   23047.86847119  .00002973  00000-0  20475-3 0  9996,2 52619  53.2127 242.7322 0001028  90.1830 269.9280 15.08848951 42381,6917.853,95.437,540.429,539.007,0.0
52619.0,STARLINK-3741,PAYLOAD,2023-02-17 00:01:21,15.08857654,0.0001251,53.2124,242.1368,68.9623,291.1503,0.00031782,4.776e-05,0.0,0 STARLINK-3741,1 52619U 22052X   23048.00094849  .00004776  00000-0  31782-3 0  9993,2 52619  53.2124 242.1368 0001251  68.9623 291.1503 15.08857654 42782,6917.826,95.436,540.557,538.826,0.0
52619.0,STARLINK-3741,PAYLOAD,2023-02-17 06:22:55,15.08835156,0.0001211,53.2102,240.947,90.9304,269.1827,-4.7291e-05,-1.04e-05,0.0,0 STARLINK-3741,1 52619U 22052X   23048.26591598 -.00001040  00000-0 -47291-4 0  9990,2 52619  53.2102 240.9470 0001211  90.9304 269.1827 15.08835156 42827,6917.895,95.438,540.598,538.922,0.0
